[{"OBJECT_NAME":"ONEWEB-0417","OBJECT_ID":"2021-132Z","EPOCH":"2026-03-09T20:33:06.392736","MEAN_MOTION":13.18684741,"ECCENTRICITY":0.00018007,"INCLINATION":87.9242,"RA_OF_ASC_NODE":355.191,"ARG_OF_PERICENTER":71.2055,"MEAN_ANOMALY":288.9273,"EPHEMERIS_TYPE":0,"CLASSIFICATION_TYPE":"U","NORAD_CAT_ID":50492,"ELEMENT_SET_NO":999,"REV_AT_EPOCH":20851,"BSTAR":0.00028565545,"MEAN_MOTION_DOT":1.26e-6,"MEAN_MOTION_DDOT":0},{"OBJECT_NAME":"METEOR 3-4","OBJECT_ID":"1991-030A","EPOCH":"2026-03-09T22:37:43.485024","MEAN_MOTION":13.16698643,"ECCENTRICITY":0.00136956,"INCLINATION":82.5383,"RA_OF_ASC_NODE":254.5168,"ARG_OF_PERICENTER":49.9217,"MEAN_ANOMALY":59.7097,"EPHEMERIS_TYPE":0,"CLASSIFICATION_TYPE":"U","NORAD_CAT_ID":21232,"ELEMENT_SET_NO":999,"REV_AT_EPOCH":67604,"BSTAR":-0.00044279739,"MEAN_MOTION_DOT":-1.57e-6,"MEAN_MOTION_DDOT":0}]
